[{"OBJECT_NAME":"HULIANWANG DIGUI-113","OBJECT_ID":"2025-285J","EPOCH":"2026-03-09T17:19:49.637856","MEAN_MOTION":13.29330881,"ECCENTRICITY":1.344e-5,"INCLINATION":50.0088,"RA_OF_ASC_NODE":142.3998,"ARG_OF_PERICENTER":310.1866,"MEAN_ANOMALY":49.8994,"EPHEMERIS_TYPE":0,"CLASSIFICATION_TYPE":"U","NORAD_CAT_ID":66923,"ELEMENT_SET_NO":999,"REV_AT_EPOCH":1283,"BSTAR":0.0001136278,"MEAN_MOTION_DOT":-7.1e-7,"MEAN_MOTION_DDOT":0},{"OBJECT_NAME":"DELTA 1 DEB","OBJECT_ID":"1973-086BT","EPOCH":"2026-03-09T17:11:09.571200","MEAN_MOTION":12.99240502,"ECCENTRICITY":0.01588226,"INCLINATION":101.6002,"RA_OF_ASC_NODE":328.3771,"ARG_OF_PERICENTER":167.0398,"MEAN_ANOMALY":259.2621,"EPHEMERIS_TYPE":0,"CLASSIFICATION_TYPE":"U","NORAD_CAT_ID":7075,"ELEMENT_SET_NO":999,"REV_AT_EPOCH":45310,"BSTAR":0.008339331,"MEAN_MOTION_DOT":2.585e-5,"MEAN_MOTION_DDOT":0}]
